{"type": "FeatureCollection", "features": [ {"type": "Feature", "properties": {"norad_id": 30879, "name": "FENGYUN 1C DEB", "group": "fengyun-1c-debris", "lat": -73.59049293489859, "lon": -7.72469383522699, "alt_km": 539.2744215942639, "timestamp": "2025-12-15T07:02:37.895888+00:00", "meta": {"OBJECT_NAME": "FENGYUN 1C DEB", "OBJECT_ID": "1999-025AXR", "EPOCH": "2025-12-14T13:30:05.190912", "MEAN_MOTION": 14.67458386, "ECCENTRICITY": 0.02018336, "INCLINATION": 99.3536, "RA_OF_ASC_NODE": 205.4755, "ARG_OF_PERICENTER": 274.426, "MEAN_ANOMALY": 83.3907, "EPHEMERIS_TYPE": 0, "CLASSIFICATION_TYPE": "U", "NORAD_CAT_ID": 30879, "ELEMENT_SET_NO": 999, "REV_AT_EPOCH": 61966, "BSTAR": 0.0031978536, "MEAN_MOTION_DOT": 0.00024637, "MEAN_MOTION_DDOT": 0}, "tle": {"line1": "1 30879U 99025AXR 25348.56256008  .00024637  00000+0  31979-2 0  9998", "line2": "2 30879  99.3536 205.4755 0201833 274.4260  83.3907 14.67458386619664"}}, "geometry": {"type": "Point", "coordinates": [-7.72469383522699, -73.59049293489859]}}, {"type": "Feature", "properties": {"norad_id": 30880, "name": "FENGYUN 1C DEB", "group": "fengyun-1c-debris", "lat": 40.98440070002254, "lon": 53.41267782974721, "alt_km": 794.791636348763, "timestamp": "2025-12-15T07:02:37.895898+00:00", "meta": {"OBJECT_NAME": "FENGYUN 1C DEB", "OBJECT_ID": "1999-025AXS", "EPOCH": "2025-12-14T20:44:34.849536", "MEAN_MOTION": 14.25614178, "ECCENTRICITY": 0.00221798, "INCLINATION": 98.795, "RA_OF_ASC_NODE": 60.7124, "ARG_OF_PERICENTER": 101.5196, "MEAN_ANOMALY": 258.8476, "EPHEMERIS_TYPE": 0, "CLASSIFICATION_TYPE": "U", "NORAD_CAT_ID": 30880, "ELEMENT_SET_NO": 999, "REV_AT_EPOCH": 96744, "BSTAR": 0.0011018091, "MEAN_MOTION_DOT": 2.572e-05, "MEAN_MOTION_DDOT": 0}, "tle": {"line1": "1 30880U 99025AXS 25348.86429224  .00002572  00000+0  11018-2 0  9991", "line2": "2 30880  98.7950  60.7124 0022179 101.5196 258.8476 14.25614178967442"}}, "geometry": {"type": "Point", "coordinates": [53.41267782974721, 40.98440070002254]}}, {"type": "Feature", "properties": {"norad_id": 30882, "name": "FENGYUN 1C DEB", "group": "fengyun-1c-debris", "lat": 80.5388023956924, "lon": -78.4500010375625, "alt_km": 550.236692518497, "timestamp": "2025-12-15T07:02:37.895910+00:00", "meta": {"OBJECT_NAME": "FENGYUN 1C DEB", "OBJECT_ID": "1999-025AXU", "EPOCH": "2025-12-14T09:37:51.456000", "MEAN_MOTION": 14.86753282, "ECCENTRICITY": 0.01531296, "INCLINATION": 97.9439, "RA_OF_ASC_NODE": 43.7362, "ARG_OF_PERICENTER": 35.3785, "MEAN_ANOMALY": 325.7475, "EPHEMERIS_TYPE": 0, "CLASSIFICATION_TYPE": "U", "NORAD_CAT_ID": 30882, "ELEMENT_SET_NO": 999, "REV_AT_EPOCH": 99679, "BSTAR": 0.00094728434, "MEAN_MOTION_DOT": 0.000104, "MEAN_MOTION_DDOT": 0}, "tle": {"line1": "1 30882U 99025AXU 25348.40129000  .00010400  00000+0  94728-3 0  9991", "line2": "2 30882  97.9439  43.7362 0153129  35.3785 325.7475 14.86753282996790"}}, "geometry": {"type": "Point", "coordinates": [-78.4500010375625, 80.5388023956924]}}, {"type": "Feature", "properties": {"norad_id": 30883, "name": "FENGYUN 1C DEB", "group": "fengyun-1c-debris", "lat": 10.533943483705244, "lon": -152.21294749238436, "alt_km": 780.6113932156541, "timestamp": "2025-12-15T07:02:37.895921+00:00", "meta": {"OBJECT_NAME": "FENGYUN 1C DEB", "OBJECT_ID": "1999-025AXV", "EPOCH": "2025-12-14T08:28:33.256416", "MEAN_MOTION": 14.14551074, "ECCENTRICITY": 0.01119408, "INCLINATION": 98.3619, "RA_OF_ASC_NODE": 25.3389, "ARG_OF_PERICENTER": 209.2192, "MEAN_ANOMALY": 214.9715, "EPHEMERIS_TYPE": 0, "CLASSIFICATION_TYPE": "U", "NORAD_CAT_ID": 30883, "ELEMENT_SET_NO": 999, "REV_AT_EPOCH": 96940, "BSTAR": 0.00025007101, "MEAN_MOTION_DOT": 4.69e-06, "MEAN_MOTION_DDOT": 0}, "tle": {"line1": "1 30883U 99025AXV 25348.35316269  .00000469  00000+0  25007-3 0  9999", "line2": "2 30883  98.3619  25.3389 0111940 209.2192 214.9715 14.14551074969400"}}, "geometry": {"type": "Point", "coordinates": [-152.21294749238436, 10.533943483705244]}}, {"type": "Feature", "properties": {"norad_id": 30884, "name": "FENGYUN 1C DEB", "group": "fengyun-1c-debris", "lat": -53.3755174662754, "lon": -4.473156797120513, "alt_km": 613.2353231802663, "timestamp": "2025-12-15T07:02:37.895931+00:00", "meta": {"OBJECT_NAME": "FENGYUN 1C DEB", "OBJECT_ID": "1999-025AXW", "EPOCH": "2025-12-13T22:41:36.390912", "MEAN_MOTION": 14.73528349, "ECCENTRICITY": 0.00667041, "INCLINATION": 98.891, "RA_OF_ASC_NODE": 341.8938, "ARG_OF_PERICENTER": 332.172, "MEAN_ANOMALY": 27.5923, "EPHEMERIS_TYPE": 0, "CLASSIFICATION_TYPE": "U", "NORAD_CAT_ID": 30884, "ELEMENT_SET_NO": 999, "REV_AT_EPOCH": 98679, "BSTAR": 0.002190201, "MEAN_MOTION_DOT": 0.00014718, "MEAN_MOTION_DDOT": 0}, "tle": {"line1": "1 30884U 99025AXW 25347.94556008  .00014718  00000+0  21902-2 0  9992", "line2": "2 30884  98.8910 341.8938 0066704 332.1720  27.5923 14.73528349986790"}}, "geometry": {"type": "Point", "coordinates": [-4.473156797120513, -53.3755174662754]}}, {"type": "Feature", "properties": {"norad_id": 30885, "name": "FENGYUN 1C DEB", "group": "fengyun-1c-debris", "lat": 51.49027816370421, "lon": 21.523678112865323, "alt_km": 718.3493706783729, "timestamp": "2025-12-15T07:02:37.895941+00:00", "meta": {"OBJECT_NAME": "FENGYUN 1C DEB", "OBJECT_ID": "1999-025AXX", "EPOCH": "2025-12-14T08:04:58.941120", "MEAN_MOTION": 14.49470268, "ECCENTRICITY": 0.00536073, "INCLINATION": 99.0268, "RA_OF_ASC_NODE": 188.9762, "ARG_OF_PERICENTER": 214.4276, "MEAN_ANOMALY": 324.3872, "EPHEMERIS_TYPE": 0, "CLASSIFICATION_TYPE": "U", "NORAD_CAT_ID": 30885, "ELEMENT_SET_NO": 999, "REV_AT_EPOCH": 97000, "BSTAR": 0.0027268253, "MEAN_MOTION_DOT": 0.00010599, "MEAN_MOTION_DDOT": 0}, "tle": {"line1": "1 30885U 99025AXX 25348.33679330  .00010599  00000+0  27268-2 0  9995", "line2": "2 30885  99.0268 188.9762 0053607 214.4276 324.3872 14.49470268970008"}}, "geometry": {"type": "Point", "coordinates": [21.523678112865323, 51.49027816370421]}}, {"type": "Feature", "properties": {"norad_id": 30886, "name": "FENGYUN 1C DEB", "group": "fengyun-1c-debris", "lat": 43.245322798661775, "lon": 71.16236991029665, "alt_km": 820.4935666218344, "timestamp": "2025-12-15T07:02:37.895951+00:00", "meta": {"OBJECT_NAME": "FENGYUN 1C DEB", "OBJECT_ID": "1999-025AXY", "EPOCH": "2025-12-14T10:09:24.475680", "MEAN_MOTION": 14.2279993, "ECCENTRICITY": 0.00363786, "INCLINATION": 99.2091, "RA_OF_ASC_NODE": 241.4762, "ARG_OF_PERICENTER": 29.8119, "MEAN_ANOMALY": 330.512, "EPHEMERIS_TYPE": 0, "CLASSIFICATION_TYPE": "U", "NORAD_CAT_ID": 30886, "ELEMENT_SET_NO": 999, "REV_AT_EPOCH": 96420, "BSTAR": 0.0019787616, "MEAN_MOTION_DOT": 4.424e-05, "MEAN_MOTION_DDOT": 0}, "tle": {"line1": "1 30886U 99025AXY 25348.42319995  .00004424  00000+0  19788-2 0  9992", "line2": "2 30886  99.2091 241.4762 0036378  29.8119 330.5120 14.22799930964201"}}, "geometry": {"type": "Point", "coordinates": [71.16236991029665, 43.245322798661775]}}, {"type": "Feature", "properties": {"norad_id": 30887, "name": "FENGYUN 1C DEB", "group": "fengyun-1c-debris", "lat": -52.485615558331915, "lon": 56.1810930527158, "alt_km": 580.9136079940281, "timestamp": "2025-12-15T07:02:37.895965+00:00", "meta": {"OBJECT_NAME": "FENGYUN 1C DEB", "OBJECT_ID": "1999-025AXZ", "EPOCH": "2025-12-14T21:18:37.059552", "MEAN_MOTION": 14.44832312, "ECCENTRICITY": 0.02635815, "INCLINATION": 98.3692, "RA_OF_ASC_NODE": 44.726, "ARG_OF_PERICENTER": 281.2617, "MEAN_ANOMALY": 75.9061, "EPHEMERIS_TYPE": 0, "CLASSIFICATION_TYPE": "U", "NORAD_CAT_ID": 30887, "ELEMENT_SET_NO": 999, "REV_AT_EPOCH": 98159, "BSTAR": 0.00051122754, "MEAN_MOTION_DOT": 2.668e-05, "MEAN_MOTION_DDOT": 0}, "tle": {"line1": "1 30887U 99025AXZ 25348.88792893  .00002668  00000+0  51123-3 0  9993", "line2": "2 30887  98.3692  44.7260 0263581 281.2617  75.9061 14.44832312981592"}}, "geometry": {"type": "Point", "coordinates": [56.1810930527158, -52.485615558331915]}}, {"type": "Feature", "properties": {"norad_id": 30888, "name": "FENGYUN 1C DEB", "group": "fengyun-1c-debris", "lat": -34.992188542758946, "lon": 141.90391826106546, "alt_km": 574.2307042503253, "timestamp": "2025-12-15T07:02:37.895978+00:00", "meta": {"OBJECT_NAME": "FENGYUN 1C DEB", "OBJECT_ID": "1999-025AYA", "EPOCH": "2025-12-14T22:03:06.857568", "MEAN_MOTION": 14.93949854, "ECCENTRICITY": 0.00833193, "INCLINATION": 99.4827, "RA_OF_ASC_NODE": 328.1715, "ARG_OF_PERICENTER": 143.8605, "MEAN_ANOMALY": 216.828, "EPHEMERIS_TYPE": 0, "CLASSIFICATION_TYPE": "U", "NORAD_CAT_ID": 30888, "ELEMENT_SET_NO": 999, "REV_AT_EPOCH": 99958, "BSTAR": 0.0006140618, "MEAN_MOTION_DOT": 6.92e-05, "MEAN_MOTION_DDOT": 0}, "tle": {"line1": "1 30888U 99025AYA 25348.91882937  .00006920  00000+0  61406-3 0  9997", "line2": "2 30888  99.4827 328.1715 0083319 143.8605 216.8280 14.93949854999589"}}, "geometry": {"type": "Point", "coordinates": [141.90391826106546, -34.992188542758946]}}, {"type": "Feature", "properties": {"norad_id": 30891, "name": "FENGYUN 1C DEB", "group": "fengyun-1c-debris", "lat": 42.55238072235536, "lon": 28.675033584460657, "alt_km": 899.4022203924033, "timestamp": "2025-12-15T07:02:37.895990+00:00", "meta": {"OBJECT_NAME": "FENGYUN 1C DEB", "OBJECT_ID": "1999-025AYD", "EPOCH": "2025-12-14T08:55:41.271744", "MEAN_MOTION": 14.05870662, "ECCENTRICITY": 0.0055451, "INCLINATION": 98.7852, "RA_OF_ASC_NODE": 35.9429, "ARG_OF_PERICENTER": 183.0943, "MEAN_ANOMALY": 239.4021, "EPHEMERIS_TYPE": 0, "CLASSIFICATION_TYPE": "U", "NORAD_CAT_ID": 30891, "ELEMENT_SET_NO": 999, "REV_AT_EPOCH": 96005, "BSTAR": 0.0010589021, "MEAN_MOTION_DOT": 1.714e-05, "MEAN_MOTION_DDOT": 0}, "tle": {"line1": "1 30891U 99025AYD 25348.37200546  .00001714  00000+0  10589-2 0  9992", "line2": "2 30891  98.7852  35.9429 0055451 183.0943 239.4021 14.05870662960052"}}, "geometry": {"type": "Point", "coordinates": [28.675033584460657, 42.55238072235536]}}]}